IRIDIUM 39              
1 25042U 97069D   25046.52671051  .00001117  00000+0  28938-3 0  9990
2 25042  86.3864 263.2971 0017963 359.9086   0.2111 14.48905583431602
IRIDIUM 38              
1 25043U 97069E   25045.91058078  .00000730  00000+0  23543-3 0  9998
2 25043  86.3931 284.6285 0003531 111.3651 248.7924 14.37915810428381
IRIDIUM 42              
1 25077U 97077A   25046.39427973  .00000702  00000+0  23427-3 0  9991
2 25077  86.3943 290.4486 0002427 101.8673 258.2796 14.36169956423716
IRIDIUM 44              
1 25078U 97077B   25045.91271567  .00000765  00000+0  23649-3 0  9990
2 25078  86.3917 272.8828 0003894  79.1546 281.0091 14.40039357426101
IRIDIUM 45              
1 25104U 97082A   25046.16387279  .00021360  00000+0  87616-3 0  9990
2 25104  86.3590 106.9071 0131776  67.9163 293.6009 15.16397820433760
IRIDIUM 24              
1 25105U 97082B   25045.48729700  .00000930  00000+0  27787-3 0  9997
2 25105  86.3940 132.3487 0013358 119.5083 240.7451 14.41885772425539
IRIDIUM 51              
1 25262U 98018A   25046.43309400  .00039228  00000+0  11544-2 0  9993
2 25262  86.3871 115.6603 0104333 356.1013   3.9409 15.29572845428576
IRIDIUM 57              
1 25273U 98019B   25045.93540073  .00000754  00000+0  25433-3 0  9998
2 25273  86.3997 196.4244 0002100  94.3569 265.7868 14.35731158407249
